NORAD_CAT_ID,OBJECT_NAME,OBJECT_TYPE,EPOCH,MEAN_MOTION,ECCENTRICITY,INCLINATION,RA_OF_ASC_NODE,ARG_OF_PERICENTER,MEAN_ANOMALY,BSTAR,MEAN_MOTION_DOT,MEAN_MOTION_DDOT,TLE_LINE0,TLE_LINE1,TLE_LINE2,SEMIMAJOR_AXIS,PERIOD,APOGEE,PERIGEE,DECAYED
53860.0,STARLINK-4799,PAYLOAD,2024-03-27 13:34:09,15.08843383,0.0001415,53.2164,241.0831,85.0457,275.0697,0.00011096,1.479e-05,0.0,0 STARLINK-4799,1 53860U 22114AU  24087.56539054  .00001479  00000-0  11096-3 0  9991,2 53860  53.2164 241.0831 0001415  85.0457 275.0697 15.08843383 85062,6917.87,95.437,540.714,538.756,0.0
53860.0,STARLINK-4799,PAYLOAD,2024-03-27 16:44:55,15.08851248,0.0001456,53.217,240.489,84.3142,275.8016,5.9514e-05,6.6e-06,0.0,0 STARLINK-4799,1 53860U 22114AU  24087.69786759  .00000660  00000-0  59514-4 0  9990,2 53860  53.2170 240.4890 0001456  84.3142 275.8016 15.08851248 85382,6917.846,95.437,540.718,538.704,0.0
53860.0,STARLINK-4799,PAYLOAD,2024-03-28 19:46:29,15.088401,0.000151,53.2174,235.4321,77.5223,282.5938,0.00014097,1.956e-05,0.0,0 STARLINK-4799,1 53860U 22114AU  24088.82395382  .00001956  00000-0  14097-3 0  9999,2 53860  53.2174 235.4321 0001510  77.5223 282.5938 15.08840100 85253,6917.88,95.438,540.79,538.7,0.0
53860.0,STARLINK-4799,PAYLOAD,2024-03-29 10:04:58,15.0884017,0.000149,53.2177,232.754,83.4857,276.6305,-3.2062e-05,-7.98e-06,0.0,0 STARLINK-4799,1 53860U 22114AU  24089.42011942 -.00000798  00000-0 -32062-4 0  9991,2 53860  53.2177 232.7540 0001490  83.4857 276.6305 15.08840170 85344,6917.88,95.438,540.776,538.714,0.0
53860.0,STARLINK-4799,PAYLOAD,2024-03-29 16:26:29,15.08850364,0.0001783,53.2167,231.5672,84.2311,275.8884,7.2301e-05,8.63e-06,0.0,0 STARLINK-4799,1 53860U 22114AU  24089.68506892  .00000863  00000-0  72301-4 0  9993,2 53860  53.2167 231.5672 0001783  84.2311 275.8884 15.08850364 85388,6917.849,95.437,540.947,538.48,0.0
53860.0,STARLINK-4799,PAYLOAD,2024-03-30 13:06:31,15.08834642,0.0001912,53.2199,227.7041,95.1589,264.9621,6.0491e-05,6.75e-06,0.0,0 STARLINK-4799,1 53860U 22114AU  24090.54619853  .00000675  00000-0  60491-4 0  9990,2 53860  53.2199 227.7041 0001912  95.1589 264.9621 15.08834642 85516,6917.897,95.438,541.084,538.439,0.0
53860.0,STARLINK-4799,PAYLOAD,2024-03-30 19:28:03,15.08843349,0.0001532,53.2157,226.5122,87.6437,272.4731,0.00013126,1.802e-05,0.0,0 STARLINK-4799,1 53860U 22114AU  24090.81115161  .00001802  00000-0  13126-3 0  9998,2 53860  53.2157 226.5122 0001532  87.6437 272.4731 15.08843349 85557,6917.87,95.437,540.795,538.675,0.0
53860.0,STARLINK-4799,PAYLOAD,2024-03-31 12:57:18,15.08841061,0.0001665,53.2171,223.2434,88.4431,271.6752,4.969e-06,-2.09e-06,0.0,0 STARLINK-4799,1 53860U 22114AU  24091.53979755 -.00000209  00000-0  49690-5 0  9993,2 53860  53.2171 223.2434 0001665  88.4431 271.6752 15.08841061 85668,6917.877,95.437,540.894,538.59,0.0
53860.0,STARLINK-4799,PAYLOAD,2024-03-31 14:32:41,15.0884104,0.0001649,53.218,222.9462,88.1468,271.9713,-3.2966e-07,-2.93e-06,0.0,0 STARLINK-4799,1 53860U 22114AU  24091.60603759 -.00000293  00000-0 -32966-6 0  9992,2 53860  53.2180 222.9462 0001649  88.1468 271.9713 15.08841040 85975,6917.877,95.437,540.883,538.601,0.0
53860.0,STARLINK-4799,PAYLOAD,2024-03-31 17:43:27,15.08849515,0.0001402,53.2168,222.3499,89.0506,271.0647,6.3999e-05,7.31e-06,0.0,0 STARLINK-4799,1 53860U 22114AU  24091.73850900  .00000731  00000-0  63999-4 0  9991,2 53860  53.2168 222.3499 0001402  89.0506 271.0647 15.08849515 85696,6917.851,95.437,540.686,538.746,0.0
53860.0,STARLINK-4799,PAYLOAD,2024-04-01 01:40:23,15.08832706,0.0001711,53.2171,220.863,87.4167,272.7021,2.8256e-05,1.62e-06,0.0,0 STARLINK-4799,1 53860U 22114AU  24092.06972165  .00000162  00000-0  28256-4 0  9991,2 53860  53.2171 220.8630 0001711  87.4167 272.7021 15.08832706 85742,6917.903,95.438,540.951,538.584,0.0
53860.0,STARLINK-4799,PAYLOAD,2024-04-01 14:23:29,15.08835458,0.0001529,53.2178,218.4855,95.8609,264.2557,-1.6077e-05,-5.44e-06,0.0,0 STARLINK-4799,1 53860U 22114AU  24092.59964310 -.00000544  00000-0 -16077-4 0  9996,2 53860  53.2178 218.4855 0001529  95.8609 264.2557 15.08835458 86122,6917.894,95.438,540.817,538.702,0.0
53860.0,STARLINK-4799,PAYLOAD,2024-04-02 01:31:07,15.08873766,0.0001113,53.2192,216.4041,95.7901,264.3218,0.00033104,4.989e-05,0.0,0 STARLINK-4799,1 53860U 22114AU  24093.06328234  .00004989  00000-0  33104-3 0  9992,2 53860  53.2192 216.4041 0001113  95.7901 264.3218 15.08873766 85898,6917.777,95.435,540.412,538.872,0.0
53860.0,STARLINK-4799,PAYLOAD,2024-04-02 14:14:14,15.0884002,0.0001605,53.2196,214.0261,84.2304,275.8871,2.3893e-05,9.2e-07,0.0,0 STARLINK-4799,1 53860U 22114AU  24093.59322677  .00000092  00000-0  23893-4 0  9991,2 53860  53.2196 214.0261 0001605  84.2304 275.8871 15.08840020 86278,6917.88,95.438,540.856,538.635,0.0
53860.0,STARLINK-4799,PAYLOAD,2024-04-03 01:21:57,15.08830922,0.0001326,53.2178,211.9431,85.8147,274.2996,-0.00016279,-2.877e-05,0.0,0 STARLINK-4799,1 53860U 22114AU  24094.05691795 -.00002877  00000-0 -16279-3 0  9997,2 53860  53.2178 211.9431 0001326  85.8147 274.2996 15.08830922 86041,6917.908,95.438,540.69,538.856,0.0
53860.0,STARLINK-4799,PAYLOAD,2024-04-03 14:05:03,15.08822108,0.0001528,53.2185,209.5652,89.3771,270.7396,-7.7227e-05,-1.516e-05,0.0,0 STARLINK-4799,1 53860U 22114AU  24094.58684634 -.00001516  00000-0 -77227-4 0  9999,2 53860  53.2185 209.5652 0001528  89.3771 270.7396 15.08822108 86427,6917.935,95.439,540.857,538.743,0.0
53860.0,STARLINK-4799,PAYLOAD,2024-04-04 13:55:49,15.08825891,0.0001363,53.218,205.1027,97.2253,262.8895,0.00016435,2.328e-05,0.0,0 STARLINK-4799,1 53860U 22114AU  24095.58043375  .00002328  00000-0  16435-3 0  9994,2 53860  53.2180 205.1027 0001363  97.2253 262.8895 15.08825891 86271,6917.924,95.438,540.731,538.846,0.0
53860.0,STARLINK-4799,PAYLOAD,2024-04-05 13:46:36,15.08837674,0.0001238,53.217,200.6435,92.8102,267.3032,0.00026357,3.909e-05,0.0,0 STARLINK-4799,1 53860U 22114AU  24096.57403130  .00003909  00000-0  26357-3 0  9993,2 53860  53.2170 200.6435 0001238  92.8102 267.3032 15.08837674 86420,6917.887,95.438,540.609,538.896,0.0
53860.0,STARLINK-4799,PAYLOAD,2024-04-05 16:57:22,15.08844262,0.0001224,53.217,200.048,91.2216,268.8916,0.00023866,3.513e-05,0.0,0 STARLINK-4799,1 53860U 22114AU  24096.70650821  .00003513  00000-0  23866-3 0  9992,2 53860  53.2170 200.0480 0001224  91.2216 268.8916 15.08844262 86741,6917.867,95.437,540.579,538.886,0.0
53860.0,STARLINK-4799,PAYLOAD,2024-04-06 13:37:24,15.08839101,0.0001777,53.2176,196.1817,97.2292,262.8902,4.8162e-05,4.78e-06,0.0,0 STARLINK-4799,1 53860U 22114AU  24097.56764029  .00000478  00000-0  48162-4 0  9997,2 53860  53.2176 196.1817 0001777  97.2292 262.8902 15.08839101 86575,6917.883,95.438,540.977,538.519,0.0
53860.0,STARLINK-4799,PAYLOAD,2024-04-07 10:17:25,15.08838737,0.0001249,53.216,192.3186,94.6288,265.4846,-6.0536e-05,-1.251e-05,0.0,0 STARLINK-4799,1 53860U 22114AU  24098.42876602 -.00001251  00000-0 -60536-4 0  9995,2 53860  53.2160 192.3186 0001249  94.6288 265.4846 15.08838737 86700,6917.884,95.438,540.613,538.885,0.0
53860.0,STARLINK-4799,PAYLOAD,2024-04-07 13:28:11,15.08839524,0.0001274,53.2159,191.7241,97.9176,262.1961,-4.2586e-05,-9.66e-06,0.0,0 STARLINK-4799,1 53860U 22114AU  24098.56124512 -.00000966  00000-0 -42586-4 0  9993,2 53860  53.2159 191.7241 0001274  97.9176 262.1961 15.08839524 87026,6917.882,95.438,540.628,538.866,0.0
53860.0,STARLINK-4799,PAYLOAD,2024-04-07 23:00:29,15.08846625,0.0001376,53.2169,189.9396,93.2167,266.8983,-5.0875e-05,-1.098e-05,0.0,0 STARLINK-4799,1 53860U 22114AU  24098.95868053 -.00001098  00000-0 -50875-4 0  9998,2 53860  53.2169 189.9396 0001376  93.2167 266.8983 15.08846625 86786,6917.86,95.437,540.677,538.773,0.0
53860.0,STARLINK-4799,PAYLOAD,2024-04-08 10:08:12,15.08834902,0.0001507,53.2179,187.8585,92.8117,267.3048,7.4214e-05,8.93e-06,0.0,0 STARLINK-4799,1 53860U 22114AU  24099.42236775  .00000893  00000-0  74214-4 0  9994,2 53860  53.2179 187.8585 0001507  92.8117 267.3048 15.08834902 86851,6917.896,95.438,540.803,538.718,0.0
53860.0,STARLINK-4799,PAYLOAD,2024-04-08 22:51:17,15.08838218,0.0001715,53.2183,185.479,90.4303,269.6885,0.00015304,2.148e-05,0.0,0 STARLINK-4799,1 53860U 22114AU  24099.95228522  .00002148  00000-0  15304-3 0  9992,2 53860  53.2183 185.4790 0001715  90.4303 269.6885 15.08838218 87231,6917.886,95.438,540.937,538.564,0.0
53860.0,STARLINK-4799,PAYLOAD,2024-04-09 09:58:59,15.08842057,0.0001644,53.2176,183.3974,89.4564,270.6617,0.00011948,1.614e-05,0.0,0 STARLINK-4799,1 53860U 22114AU  24100.41596393  .00001614  00000-0  11948-3 0  9997,2 53860  53.2176 183.3974 0001644  89.4564 270.6617 15.08842057 87301,6917.874,95.437,540.876,538.602,0.0
53860.0,STARLINK-4799,PAYLOAD,2024-04-09 22:42:04,15.08842641,0.0001621,53.2156,181.0158,85.8525,274.2652,9.1809e-05,1.174e-05,0.0,0 STARLINK-4799,1 53860U 22114AU  24100.94588326  .00001174  00000-0  91809-4 0  9998,2 53860  53.2156 181.0158 0001621  85.8525 274.2652 15.08842641 87386,6917.872,95.437,540.859,538.616,0.0
53860.0,STARLINK-4799,PAYLOAD,2024-04-10 11:25:09,15.0884407,0.0001544,53.2153,178.6368,86.721,273.3959,0.00011123,1.483e-05,0.0,0 STARLINK-4799,1 53860U 22114AU  24101.47580106  .00001483  00000-0  11123-3 0  9998,2 53860  53.2153 178.6368 0001544  86.7210 273.3959 15.08844070 87167,6917.868,95.437,540.801,538.665,0.0
53860.0,STARLINK-4799,PAYLOAD,2024-04-11 04:54:24,15.08839791,0.0001585,53.2153,175.3669,90.5507,269.5666,1.68e-05,-2.1e-07,0.0,0 STARLINK-4799,1 53860U 22114AU  24102.20444514 -.00000021  00000-0  16800-4 0  9998,2 53860  53.2153 175.3669 0001585  90.5507 269.5666 15.08839791 87270,6917.881,95.438,540.843,538.65,0.0
53860.0,STARLINK-4799,PAYLOAD,2024-04-11 11:15:56,15.08839074,0.0001628,53.2162,174.1765,92.0317,268.0862,-3.0829e-06,-3.37e-06,0.0,0 STARLINK-4799,1 53860U 22114AU  24102.46940579 -.00000337  00000-0 -30829-5 0  9997,2 53860  53.2162 174.1765 0001628  92.0317 268.0862 15.08839074 87612,6917.883,95.438,540.874,538.622,0.0
